NAVSTAR 77 (USA 289)    
1 43873U 18109A   23365.79890771  .00000029  00000+0  00000+0 0  9990
2 43873  55.2352 127.6835 0028100 191.3748 334.0588  2.00572580 37050
